{
    "links": {
        "self": "http://www.neowsapp.com/rest/v1/neo/3154522?api_key=iIulBulltgU6a56xZRHN4H3l9WmuAYTsLGpBGhQ2"
    },
    "id": "3154522",
    "neo_reference_id": "3154522",
    "name": "(2003 LW2)",
    "designation": "2003 LW2",
    "nasa_jpl_url": "http://ssd.jpl.nasa.gov/sbdb.cgi?sstr=3154522",
    "absolute_magnitude_h": 26.0,
    "estimated_diameter": {
        "kilometers": {
            "estimated_diameter_min": 0.0167708462,
            "estimated_diameter_max": 0.0375007522
        },
        "meters": {
            "estimated_diameter_min": 16.7708462163,
            "estimated_diameter_max": 37.5007521798
        },
        "miles": {
            "estimated_diameter_min": 0.0104209175,
            "estimated_diameter_max": 0.0233018799
        },
        "feet": {
            "estimated_diameter_min": 55.0224631002,
            "estimated_diameter_max": 123.0339677816
        }
    },
    "is_potentially_hazardous_asteroid": false,
    "close_approach_data": [
        {
            "close_approach_date": "1905-03-08",
            "close_approach_date_full": "1905-Mar-08 20:07",
            "epoch_date_close_approach": -2045447580000,
            "relative_velocity": {
                "kilometers_per_second": "16.0466119007",
                "kilometers_per_hour": "57767.8028426503",
                "miles_per_hour": "35894.6661607568"
            },
            "miss_distance": {
                "astronomical": "0.267106647",
                "lunar": "103.904485683",
                "kilometers": "39958585.45404189",
                "miles": "24829113.659842482"
            },
            "orbiting_body": "Earth"
        },
        {
            "close_approach_date": "1910-03-31",
            "close_approach_date_full": "1910-Mar-31 14:30",
            "epoch_date_close_approach": -1885714200000,
            "relative_velocity": {
                "kilometers_per_second": "8.7857936595",
                "kilometers_per_hour": "31628.8571740892",
                "miles_per_hour": "19652.9418368667"
            },
            "miss_distance": {
                "astronomical": "0.0481866956",
                "lunar": "18.7446245884",
                "kilometers": "7208627.024098372",
                "miles": "4479233.1279746536"
            },
            "orbiting_body": "Earth"
        },
        {
            "close_approach_date": "2003-05-31",
            "close_approach_date_full": "2003-May-31 20:59",
            "epoch_date_close_approach": 1054414740000,
            "relative_velocity": {
                "kilometers_per_second": "8.7255700522",
                "kilometers_per_hour": "31412.0521880028",
                "miles_per_hour": "19518.2276498176"
            },
            "miss_distance": {
                "astronomical": "0.0046144458",
                "lunar": "1.7950194162",
                "kilometers": "690311.262910446",
                "miles": "428939.5285823148"
            },
            "orbiting_body": "Moon"
        },
        {
            "close_approach_date": "2003-06-01",
            "close_approach_date_full": "2003-Jun-01 05:16",
            "epoch_date_close_approach": 1054444560000,
            "relative_velocity": {
                "kilometers_per_second": "8.1253167302",
                "kilometers_per_hour": "29251.1402288785",
                "miles_per_hour": "18175.5209938829"
            },
            "miss_distance": {
                "astronomical": "0.0033104548",
                "lunar": "1.2877669172",
                "kilometers": "495236.986811276",
                "miles": "307725.9941605688"
            },
            "orbiting_body": "Earth"
        }
    ],
    "orbital_data": {
        "orbit_id": "10",
        "orbit_determination_date": "2017-04-06 09:14:03",
        "first_observation_date": "2003-06-04",
        "last_observation_date": "2003-06-11",
        "data_arc_in_days": 7,
        "observations_used": 28,
        "orbit_uncertainty": "8",
        "minimum_orbit_intersection": ".0015273",
        "jupiter_tisserand_invariant": "3.823",
        "epoch_osculation": "2452797.5",
        "eccentricity": ".479440571708345",
        "semi_major_axis": "1.878657485806423",
        "inclination": "2.296263611411011",
        "ascending_node_longitude": "247.2684344926689",
        "orbital_period": "940.5239040337457",
        "perihelion_distance": ".9779528667672294",
        "perihelion_argument": "335.1869816368809",
        "aphelion_distance": "2.779362104845616",
        "perihelion_time": "2452768.777268226283",
        "mean_anomaly": "10.99406766185404",
        "mean_motion": ".3827653911357508",
        "equinox": "J2000",
        "orbit_class": {
            "orbit_class_type": "APO",
            "orbit_class_description": "Near-Earth asteroid orbits which cross the Earth’s orbit similar to that of 1862 Apollo",
            "orbit_class_range": "a (semi-major axis) > 1.0 AU; q (perihelion) < 1.017 AU"
        }
    },
    "is_sentry_object": false
}